[{"OBJECT_NAME":"GEESAT-4 04","OBJECT_ID":"2025-170D","EPOCH":"2026-03-09T23:17:55.914720","MEAN_MOTION":15.1505395,"ECCENTRICITY":0.00176751,"INCLINATION":49.9794,"RA_OF_ASC_NODE":229.0049,"ARG_OF_PERICENTER":290.2477,"MEAN_ANOMALY":69.6574,"EPHEMERIS_TYPE":0,"CLASSIFICATION_TYPE":"U","NORAD_CAT_ID":65122,"ELEMENT_SET_NO":999,"REV_AT_EPOCH":3230,"BSTAR":0.00059156623,"MEAN_MOTION_DOT":0.00010965,"MEAN_MOTION_DDOT":0},{"OBJECT_NAME":"H-2A R\/B","OBJECT_ID":"2014-029F","EPOCH":"2026-03-09T22:37:37.455168","MEAN_MOTION":15.13509735,"ECCENTRICITY":0.00104243,"INCLINATION":98.1953,"RA_OF_ASC_NODE":57.5904,"ARG_OF_PERICENTER":119.3216,"MEAN_ANOMALY":240.9056,"EPHEMERIS_TYPE":0,"CLASSIFICATION_TYPE":"U","NORAD_CAT_ID":39771,"ELEMENT_SET_NO":999,"REV_AT_EPOCH":64385,"BSTAR":0.00040980878,"MEAN_MOTION_DOT":7.275e-5,"MEAN_MOTION_DDOT":0}]
